GSAT0101 (GALILEO-PFM)  
1 37846U 11060A   25200.84123925 -.00000090  00000+0  00000+0 0  9997
2 37846  57.0890 350.7740 0002201  61.2043 298.8155  1.70475629 85457
GSAT0102 (GALILEO-FM2)  
1 37847U 11060B   25205.75902451 -.00000108  00000+0  00000+0 0  9992
2 37847  57.0888 350.6414 0001903   1.5683 181.9736  1.70475872 85667
GSAT0103 (GALILEO-FM3)  
1 38857U 12055A   25203.22742479 -.00000039  00000+0  00000+0 0  9994
2 38857  55.6059 110.6094 0003864 297.3871  62.5842  1.70473493 79520
GSAT0201 (GALILEO 5)    
1 40128U 14050A   25203.01798288 -.00000049  00000+0  00000+0 0  9992
2 40128  49.2338 286.9120 1635606 166.7380 198.1929  1.85519642 72191
GSAT0202 (GALILEO 6)    
1 40129U 14050B   25201.11882138 -.00000052  00000+0  00000+0 0  9994
2 40129  49.2517 286.0712 1635626 167.4338 197.2451  1.85520224 74327
GSAT0203 (GALILEO 7)    
1 40544U 15017A   25201.79300362 -.00000095  00000+0  00000+0 0  9994
2 40544  56.8830 350.6282 0002632 248.9105 111.0563  1.70476040 63552
GSAT0204 (GALILEO 8)    
1 40545U 15017B   25201.46146451 -.00000094  00000+0  00000+0 0  9995
2 40545  56.8894 350.6543 0002821 226.6332 133.3393  1.70475566 26591
GSAT0205 (GALILEO 9)    
1 40889U 15045A   25205.33562459  .00000053  00000+0  00000+0 0  9991
2 40889  55.0548 230.6600 0002923  13.0753 346.9965  1.70473576 61425
GSAT0206 (GALILEO 10)   
1 40890U 15045B   25205.55628374  .00000051  00000+0  00000+0 0  9994
2 40890  55.0536 230.6493 0001619 324.3412  35.7107  1.70473534 61453
GSAT0209 (GALILEO 12)   
1 41174U 15079A   25201.61888427 -.00000035  00000+0  00000+0 0  9990
2 41174  55.6252 110.3666 0004504 341.2114  18.7806  1.70473671 59703
GSAT0208 (GALILEO 11)   
1 41175U 15079B   25205.35843045 -.00000033  00000+0  00000+0 0  9991
2 41175  55.6263 110.2611 0004452 334.9723  25.0303  1.70473695 59767
GSAT0211 (GALILEO 14)   
1 41549U 16030A   25200.78933288  .00000077  00000+0  00000+0 0  9992
2 41549  55.2044 230.8354 0002782 317.3333  42.7178  1.70473521 57003
GSAT0210 (GALILEO 13)   
1 41550U 16030B   25201.63368523  .00000077  00000+0  00000+0 0  9993
2 41550  55.2036 230.8102 0004509 238.4100 121.6205  1.70473818 57019
GSAT0207 (GALILEO 15)   
1 41859U 16069A   25205.43182875 -.00000034  00000+0  00000+0 0  9997
2 41859  55.2946 110.1654 0004186 334.8818  25.1225  1.70473610 54030
GSAT0212 (GALILEO 16)   
1 41860U 16069B   25205.28557726 -.00000034  00000+0  00000+0 0  9993
2 41860  55.2930 110.1649 0003830 339.7919  20.2165  1.70473728 54062
GSAT0213 (GALILEO 17)   
1 41861U 16069C   25203.89370837 -.00000039  00000+0  00000+0 0  9990
2 41861  55.2943 110.2110 0004198 305.5358  54.4394  1.70474241 54038
GSAT0214 (GALILEO 18)   
1 41862U 16069D   25204.62606380 -.00000037  00000+0  00000+0 0  9996
2 41862  55.2929 110.1837 0003235 313.8793  46.1128  1.70473785 54040
GSAT0215 (GALILEO 19)   
1 43055U 17079A   25205.70253705  .00000051  00000+0  00000+0 0  9998
2 43055  55.1799 230.5162 0003554 260.7408  99.2805  1.70474356 47403
GSAT0216 (GALILEO 20)   
1 43056U 17079B   25197.19521055  .00000070  00000+0  00000+0 0  9999
2 43056  55.1835 230.7506 0004660 270.4738  89.5407  1.70474472 47276
GSAT0217 (GALILEO 21)   
1 43057U 17079C   25204.45483491  .00000061  00000+0  00000+0 0  9999
2 43057  55.1795 230.5483 0005026 284.4420  75.5716  1.70474238 47384
GSAT0218 (GALILEO 22)   
1 43058U 17079D   25203.50174589  .00000069  00000+0  00000+0 0  9998
2 43058  55.1798 230.5724 0005258 268.5045  91.5086  1.70474396 47393
GSAT0221 (GALILEO 25)   
1 43564U 18060A   25205.75060570 -.00000108  00000+0  00000+0 0  9999
2 43564  57.2629 350.6226 0002708 274.8126  85.1428  1.70476095 43594
GSAT0222 (GALILEO 26)   
1 43565U 18060B   25204.79657108 -.00000106  00000+0  00000+0 0  9990
2 43565  57.2665 350.6511 0002929 227.9603 132.0019  1.70475817 43618
GSAT0219 (GALILEO 23)   
1 43566U 18060C   25203.25813587 -.00000101  00000+0  00000+0 0  9991
2 43566  57.2661 350.6941 0001772 285.8886  74.0821  1.70475947 43567
GSAT0220 (GALILEO 24)   
1 43567U 18060D   25205.23873665 -.00000107  00000+0  00000+0 0  9991
2 43567  57.2653 350.6405 0002143 276.2727  83.6894  1.70475886 43574
GSAT0223 (GALILEO 27)   
1 49809U 21116A   25203.32703612 -.00000101  00000+0  00000+0 0  9998
2 49809  57.2553 350.5839 0002584 190.0497 167.3197  1.70475894 22554
GSAT0224 (GALILEO 28)   
1 49810U 21116B   25204.02663743 -.00000104  00000+0  00000+0 0  9991
2 49810  57.2561 350.5636 0002092 178.3898   0.9046  1.70476061 22594
GSAT0225 (GALILEO 29)   
1 59598U 24079A   25203.44905052 -.00000040  00000+0  00000+0 0  9992
2 59598  54.9127 110.3044 0000225 231.6281 305.3897  1.70473910  7689
GSAT0227 (GALILEO 30)   
1 59600U 24079C   25202.75743629 -.00000040  00000+0  00000+0 0  9999
2 59600  54.9070 110.3235 0002169  75.2590 284.7740  1.70473880  7735
GSAT0232 (GALILEO 32)   
1 61182U 24167A   25205.67010410  .00000051  00000+0  00000+0 0  9995
2 61182  55.2911 230.2978 0005329 229.1710 313.4708  1.70473972  5286
GSAT0226 (GALILEO 31)   
1 61183U 24167B   25205.76936376  .00000051  00000+0  00000+0 0  9994
2 61183  55.2897 230.3009 0003083 227.0870 129.0767  1.70474007  5281
